NORAD_CAT_ID,OBJECT_NAME,OBJECT_TYPE,EPOCH,MEAN_MOTION,ECCENTRICITY,INCLINATION,RA_OF_ASC_NODE,ARG_OF_PERICENTER,MEAN_ANOMALY,BSTAR,MEAN_MOTION_DOT,MEAN_MOTION_DDOT,TLE_LINE0,TLE_LINE1,TLE_LINE2,SEMIMAJOR_AXIS,PERIOD,APOGEE,PERIGEE,DECAYED
55678.0,STARLINK-5314,PAYLOAD,2024-05-09 22:18:58,14.98325133,0.0003022,70.0006,50.5207,270.2251,89.8561,7.2891e-05,7.77e-06,0.0,0 STARLINK-5314,1 55678U 23021BC  24130.92984202  .00000777  00000-0  72891-4 0  9997,2 55678  70.0006  50.5207 0003022 270.2251  89.8561 14.98325133 69114,6950.208,96.107,574.173,569.973,0.0
55678.0,STARLINK-5314,PAYLOAD,2024-05-10 04:43:30,14.98331794,0.000276,70.0011,49.8481,269.4914,90.5929,0.00012235,1.367e-05,0.0,0 STARLINK-5314,1 55678U 23021BC  24131.19687720  .00001367  00000-0  12235-3 0  9993,2 55678  70.0011  49.8481 0002760 269.4914  90.5929 14.98331794 69150,6950.187,96.107,573.971,570.134,0.0
55678.0,STARLINK-5314,PAYLOAD,2024-05-10 20:44:50,14.98334012,0.0002847,70.0012,48.1646,272.219,87.8643,3.2303e-05,2.93e-06,0.0,0 STARLINK-5314,1 55678U 23021BC  24131.86447712  .00000293  00000-0  32303-4 0  9998,2 55678  70.0012  48.1646 0002847 272.2190  87.8643 14.98334012 68955,6950.18,96.107,574.024,570.067,0.0
55678.0,STARLINK-5314,PAYLOAD,2024-05-10 22:20:58,14.98334376,0.0002838,70.0012,47.9963,272.554,87.5294,3.6646e-05,3.44e-06,0.0,0 STARLINK-5314,1 55678U 23021BC  24131.93123665  .00000344  00000-0  36646-4 0  9995,2 55678  70.0012  47.9963 0002838 272.5540  87.5294 14.98334376 69263,6950.179,96.107,574.017,570.072,0.0
55678.0,STARLINK-5314,PAYLOAD,2024-05-11 04:45:29,14.98349507,0.0002536,70.0014,47.3223,257.1719,102.9157,0.00021502,2.475e-05,0.0,0 STARLINK-5314,1 55678U 23021BC  24132.19825998  .00002475  00000-0  21502-3 0  9993,2 55678  70.0014  47.3223 0002536 257.1719 102.9157 14.98349507 69004,6950.133,96.106,573.76,570.235,0.0
55678.0,STARLINK-5314,PAYLOAD,2024-05-11 11:10:01,14.98363478,0.000242,70.0021,46.6486,269.7592,90.3289,7.0578e-05,7.5e-06,0.0,0 STARLINK-5314,1 55678U 23021BC  24132.46529089  .00000750  00000-0  70578-4 0  9997,2 55678  70.0021  46.6486 0002420 269.7592  90.3289 14.98363478 69048,6950.089,96.105,573.636,570.272,0.0
55678.0,STARLINK-5314,PAYLOAD,2024-05-11 20:46:49,14.98350319,0.0002533,70.0016,45.6415,265.4277,94.6593,0.00022974,2.651e-05,0.0,0 STARLINK-5314,1 55678U 23021BC  24132.86585037  .00002651  00000-0  22974-3 0  9994,2 55678  70.0016  45.6415 0002533 265.4277  94.6593 14.98350319 69103,6950.13,96.106,573.756,570.235,0.0
55678.0,STARLINK-5314,PAYLOAD,2024-05-11 22:22:57,14.98348499,0.0002654,70.0026,45.4744,264.2033,95.8823,0.00023492,2.712e-05,0.0,0 STARLINK-5314,1 55678U 23021BC  24132.93261055  .00002712  00000-0  23492-3 0  9997,2 55678  70.0026  45.4744 0002654 264.2033  95.8823 14.98348499 69417,6950.136,96.106,573.845,570.156,0.0
55678.0,STARLINK-5314,PAYLOAD,2024-05-12 04:47:32,14.98321148,0.0002925,70.0004,44.7996,269.2766,90.8058,-0.00016227,-2.028e-05,0.0,0 STARLINK-5314,1 55678U 23021BC  24133.19967786 -.00002028  00000-0 -16227-3 0  9990,2 55678  70.0004  44.7996 0002925 269.2766  90.8058 14.98321148 69151,6950.22,96.108,574.118,570.052,0.0
55678.0,STARLINK-5314,PAYLOAD,2024-05-12 11:12:10,14.98252212,0.000236,70.0022,44.1248,267.2379,92.851,-0.00090679,-0.00010874,0.0,0 STARLINK-5314,1 55678U 23021BC  24133.46678796 -.00010874  00000-0 -90679-3 0  9991,2 55678  70.0022  44.1248 0002360 267.2379  92.8510 14.98252212 69190,6950.433,96.112,573.939,570.658,0.0
55678.0,STARLINK-5314,PAYLOAD,2024-05-12 19:12:46,14.98318901,0.0002718,70.0011,43.285,263.5544,96.5306,-0.00021513,-2.658e-05,0.0,0 STARLINK-5314,1 55678U 23021BC  24133.80053475 -.00002658  00000-0 -21513-3 0  9992,2 55678  70.0011  43.2850 0002718 263.5544  96.5306 14.98318901 69245,6950.227,96.108,573.981,570.203,0.0
55678.0,STARLINK-5314,PAYLOAD,2024-05-12 22:25:02,14.98320097,0.0002571,70.0013,42.9485,260.4706,99.6163,-0.00021012,-2.598e-05,0.0,0 STARLINK-5314,1 55678U 23021BC  24133.93405507 -.00002598  00000-0 -21012-3 0  9990,2 55678  70.0013  42.9485 0002571 260.4706  99.6163 14.98320097 69569,6950.224,96.108,573.875,570.302,0.0
55678.0,STARLINK-5314,PAYLOAD,2024-05-13 11:14:06,14.98326149,0.000234,70.0018,41.6007,281.6095,78.4802,-0.00014077,-1.772e-05,0.0,0 STARLINK-5314,1 55678U 23021BC  24134.46813389 -.00001772  00000-0 -14077-3 0  9996,2 55678  70.0018  41.6007 0002340 281.6095  78.4802 14.98326149 69345,6950.205,96.107,573.696,570.443,0.0
55678.0,STARLINK-5314,PAYLOAD,2024-05-14 03:15:26,14.98330261,0.0003099,70.0011,39.9185,275.969,84.1116,-4.3481e-05,-6.12e-06,0.0,0 STARLINK-5314,1 55678U 23021BC  24135.13572908 -.00000612  00000-0 -43481-4 0  9994,2 55678  70.0011  39.9185 0003099 275.9690  84.1116 14.98330261 69447,6950.192,96.107,574.211,569.903,0.0
55678.0,STARLINK-5314,PAYLOAD,2024-05-14 11:16:07,14.98321946,0.0002018,70.0015,39.0749,270.0994,89.9934,0.00026548,3.075e-05,0.0,0 STARLINK-5314,1 55678U 23021BC  24135.46953165  .00003075  00000-0  26548-3 0  9996,2 55678  70.0015  39.0749 0002018 270.0994  89.9934 14.98321946 69790,6950.218,96.108,573.485,570.68,0.0
55678.0,STARLINK-5314,PAYLOAD,2024-05-14 22:29:02,14.98340364,0.0002933,70.001,37.8986,273.5592,86.5232,0.00033921,3.958e-05,0.0,0 STARLINK-5314,1 55678U 23021BC  24135.93683951  .00003958  00000-0  33921-3 0  9994,2 55678  70.0010  37.8986 0002933 273.5592  86.5232 14.98340364 69869,6950.161,96.106,574.064,569.987,0.0
55678.0,STARLINK-5314,PAYLOAD,2024-05-15 03:17:26,14.98350894,0.0003043,70.0009,37.3918,268.9138,91.1672,0.00035419,4.138e-05,0.0,0 STARLINK-5314,1 55678U 23021BC  24136.13710961  .00004138  00000-0  35419-3 0  9994,2 55678  70.0009  37.3918 0003043 268.9138  91.1672 14.98350894 69593,6950.128,96.106,574.108,569.878,0.0
55678.0,STARLINK-5314,PAYLOAD,2024-05-15 20:54:56,14.98330871,0.0003338,69.9991,35.5396,281.9337,78.1448,2.5901e-05,2.16e-06,0.0,0 STARLINK-5314,1 55678U 23021BC  24136.87148804  .00000216  00000-0  25901-4 0  9995,2 55678  69.9991  35.5396 0003338 281.9337  78.1448 14.98330871 69705,6950.19,96.107,574.375,569.735,0.0
55678.0,STARLINK-5314,PAYLOAD,2024-05-15 22:31:05,14.98324999,0.0002491,70.0006,35.3734,272.7965,87.2909,-5.1693e-05,-7.1e-06,0.0,0 STARLINK-5314,1 55678U 23021BC  24136.93825493 -.00000710  00000-0 -51693-4 0  9996,2 55678  70.0006  35.3734 0002491 272.7965  87.2909 14.98324999 70016,6950.208,96.107,573.805,570.342,0.0
55678.0,STARLINK-5314,PAYLOAD,2024-05-16 03:19:29,14.98322952,0.0003139,70.0008,34.8659,270.0882,89.9918,-0.00019336,-2.399e-05,0.0,0 STARLINK-5314,1 55678U 23021BC  24137.13853847 -.00002399  00000-0 -19336-3 0  9995,2 55678  70.0008  34.8659 0003139 270.0882  89.9918 14.98322952 69741,6950.215,96.107,574.261,569.898,0.0
55678.0,STARLINK-5314,PAYLOAD,2024-05-16 16:08:33,14.98341137,0.0003502,69.9989,33.5166,273.4072,86.6686,-0.00017813,-2.219e-05,0.0,0 STARLINK-5314,1 55678U 23021BC  24137.67260480 -.00002219  00000-0 -17813-3 0  9998,2 55678  69.9989  33.5166 0003502 273.4072  86.6686 14.98341137 69828,6950.158,96.106,574.457,569.59,0.0
55678.0,STARLINK-5314,PAYLOAD,2024-05-17 09:46:01,14.98329997,0.0002741,70.0022,31.6684,277.1174,82.9673,-0.00035174,-4.287e-05,0.0,0 STARLINK-5314,1 55678U 23021BC  24138.40696693 -.00004287  00000-0 -35174-3 0  9996,2 55678  70.0022  31.6684 0002741 277.1174  82.9673 14.98329997 69938,6950.193,96.107,573.963,570.153,0.0
55678.0,STARLINK-5314,PAYLOAD,2024-05-17 16:10:34,14.98307718,0.0002836,70.0013,30.9953,272.0098,88.0737,7.4581e-06,-4e-08,0.0,0 STARLINK-5314,1 55678U 23021BC  24138.67401151 -.00000004  00000-0  74581-5 0  9997,2 55678  70.0013  30.9953 0002836 272.0098  88.0737 14.98307718 69972,6950.262,96.108,574.098,570.156,0.0
55678.0,STARLINK-5314,PAYLOAD,2024-05-17 22:35:07,14.98309361,0.0002813,70.0011,30.322,271.8165,88.2672,1.6868e-05,1.08e-06,0.0,0 STARLINK-5314,1 55678U 23021BC  24138.94105371  .00000108  00000-0  16868-4 0  9999,2 55678  70.0011  30.3220 0002813 271.8165  88.2672 14.98309361 70314,6950.257,96.108,574.077,570.167,0.0
55678.0,STARLINK-5314,PAYLOAD,2024-05-18 01:47:22,14.98315327,0.0002732,70.0013,29.9858,270.4925,89.5921,7.6984e-05,8.25e-06,0.0,0 STARLINK-5314,1 55678U 23021BC  24139.07456891  .00000825  00000-0  76984-4 0  9991,2 55678  70.0013  29.9858 0002732 270.4925  89.5921 14.98315327 70035,6950.238,96.108,574.002,570.204,0.0
55678.0,STARLINK-5314,PAYLOAD,2024-05-18 09:48:02,14.98324619,0.0002723,70.0013,29.1444,269.412,90.6727,0.00017277,1.969e-05,0.0,0 STARLINK-5314,1 55678U 23021BC  24139.40836265  .00001969  00000-0  17277-3 0  9994,2 55678  70.0013  29.1444 0002723 269.4120  90.6727 14.98324619 70089,6950.21,96.107,573.967,570.182,0.0
55678.0,STARLINK-5314,PAYLOAD,2024-05-18 21:00:57,14.98357358,0.0003448,70.0005,27.9626,273.2639,86.8126,-0.0002319,-2.861e-05,0.0,0 STARLINK-5314,1 55678U 23021BC  24139.87566918 -.00002861  00000-0 -23190-3 0  9995,2 55678  70.0005  27.9626 0003448 273.2639  86.8126 14.98357358 70155,6950.108,96.105,574.37,569.577,0.0
55678.0,STARLINK-5314,PAYLOAD,2024-05-18 22:37:05,14.98364594,0.0003188,70.0005,27.7974,270.4977,89.5817,-0.00022941,-2.832e-05,0.0,0 STARLINK-5314,1 55678U 23021BC  24139.94242347 -.00002832  00000-0 -22941-3 0  9991,2 55678  70.0005  27.7974 0003188 270.4977  89.5817 14.98364594 70465,6950.086,96.105,574.167,569.735,0.0
55678.0,STARLINK-5314,PAYLOAD,2024-05-19 03:25:25,14.98458501,0.000355,70.0009,27.2926,265.7533,94.3221,-0.0018985,-0.00022749,0.0,0 STARLINK-5314,1 55678U 23021BC  24140.14266179 -.00022749  00000-0 -18985-2 0  9995,2 55678  70.0009  27.2926 0003550 265.7533  94.3221 14.98458501 70194,6949.796,96.099,574.128,569.193,0.0
55678.0,STARLINK-5314,PAYLOAD,2024-05-19 21:03:01,14.98307538,0.0002633,70.0015,25.441,266.9114,93.1743,-2.0484e-05,-3.37e-06,0.0,0 STARLINK-5314,1 55678U 23021BC  24140.87709914 -.00000337  00000-0 -20484-4 0  9992,2 55678  70.0015  25.4410 0002633 266.9114  93.1743 14.98307538 70300,6950.262,96.108,573.957,570.297,0.0
